{
  "norad_id": 68809,
  "name": "STARLINK-37405",
  "history": [
    {
      "epoch": "2026-04-27T12:56:27.950496Z",
      "apogee_km": 267.7856770102735,
      "perigee_km": 266.5141678105383,
      "latitude_deg": 1.7835892295000313e-05,
      "longitude_deg": -86.95603671016696,
      "height_km": 269.780506223863,
      "semi_major_axis_km": 6645.286922410405,
      "eccentricity": 9.567e-05,
      "inclination_deg": 97.2866,
      "raan_deg": 322.688,
      "arg_perigee_deg": 334.7149,
      "mean_anomaly_deg": 25.4084,
      "mean_motion_rev_day": 16.02625897
    }
  ]
}