STARLINK-37405          
1 68809U 26089H   26117.53921239 -.00823612  23569-3 -14000-2 0  9996
2 68809  97.2866 322.6880 0000956 334.7149  25.4084 16.02625897   718
